     2.11           N: GPS NAV DATA                         RINEX VERSION / TYPE
teqc  2019Feb25                         20221121 12:25:55UTCPGM / RUN BY / DATE
OSX ker:10.11.6|Core i5|gcc 4.3 -m64|OSX ker:10.10+|=+      COMMENT
    4.6566D-09  1.4901D-08 -5.9605D-08 -5.9605D-08          ION ALPHA
    7.7824D+04  4.9152D+04 -6.5536D+04 -3.2768D+05          ION BETA
    0.000000000000D+00 6.217248937901D-15   405504     1543 DELTA-UTC: A0,A1,T,W
                                                            END OF HEADER
20 09  8  4 23 59 44.0 7.556332275271D-05-9.094947017729D-13 0.000000000000D+00
    9.000000000000D+00-6.375000000000D+00 4.897704009031D-09-1.018876132075D+00
   -4.600733518600D-07 3.841869183816D-03 9.661540389061D-06 5.153797634125D+03
    2.591840000000D+05-3.539025783539D-08-6.276792126958D-01 6.146728992462D-08
    9.410679871905D-01 1.808437500000D+02 1.337608299703D+00-8.145696443810D-09
   -7.289589354942D-10 1.000000000000D+00 1.543000000000D+03 0.000000000000D+00
    2.000000000000D+00 0.000000000000D+00-6.519258022308D-09 9.000000000000D+00
    2.581980000000D+05 4.000000000000D+00
